STARLINK-31239          
1 60093U 24117C   25027.50387193  .00002594  00000+0  99753-4 0  9991
2 60093  53.1595 124.1006 0001309 105.8917 254.2228 15.30170226 34645
STARLINK-32007          
1 60094U 24117D   25027.49015603  .00001673  00000+0  68635-4 0  9996
2 60094  53.1599 124.0179 0001143  88.0459 272.0672 15.30177393 34495
STARLINK-32028          
1 60095U 24117E   25027.48060510 -.00031946  00000+0 -10669-2 0  9993
2 60095  53.1609 123.9572 0001296  46.9556 313.1553 15.30325139 34660
STARLINK-32016          
1 60096U 24117F   25027.49964762  .00000099  00000+0  15463-4 0  9999
2 60096  53.1598 124.0757 0001326  99.9858 260.1292 15.30188636 34639
STARLINK-32003          
1 60097U 24117G   25026.55252181  .00000732  00000+0  36848-4 0  9995
2 60097  53.1603 128.1119 0001206  81.3255 278.7883 15.30185455 34522
STARLINK-32026          
1 60098U 24117H   25026.56201456  .00001388  00000+0  58991-4 0  9997
2 60098  53.1609 128.1745 0001181  80.9375 279.1759 15.30196144 34551
STARLINK-31732          
1 60099U 24117J   25026.59462370  .00000740  00000+0  37128-4 0  9995
2 60099  53.1591 127.6637 0001109  99.5572 260.5554 15.30183250 34563
STARLINK-31996          
1 60100U 24117K   25027.45743084  .00000421  00000+0  26360-4 0  9990
2 60100  53.1599 123.8036 0001399 105.9096 254.2059 15.30184873 34549
STARLINK-31999          
1 60101U 24117L   25026.78434212  .00001474  00000+0  61906-4 0  9990
2 60101  53.1590 127.4288 0001019 106.1941 253.9172 15.30190886 34588
STARLINK-31954          
1 60102U 24117M   25027.49647779 -.00004301  00000+0 -13316-3 0  9999
2 60102  53.1597 124.0533 0000990  85.2300 274.8814 15.30207494 34449
STARLINK-32013          
1 60103U 24117N   25026.57890803 -.00000545  00000+0 -62876-5 0  9999
2 60103  53.1600 128.2820 0001219  93.7182 266.3958 15.30185363 34554
STARLINK-32009          
1 60104U 24117P   25027.50597216 -.00000260  00000+0  33481-5 0  9999
2 60104  53.1600 124.0843 0001199 100.8468 259.2668 15.30186288 34701
STARLINK-32018          
1 60105U 24117Q   25027.48381860 -.00001332  00000+0 -32866-4 0  9990
2 60105  53.1607 123.9712 0001172  72.6522 287.4606 15.30189693 34719
STARLINK-32045          
1 60106U 24117R   25026.57257427  .00000831  00000+0  40203-4 0  9996
2 60106  53.1608 128.2427 0001177  90.0568 270.0568 15.30187832 34551
STARLINK-32035          
1 60107U 24117S   25027.47325575 -.00000322  00000+0  12393-5 0  9993
2 60107  53.1604 123.9062 0001277  73.4537 286.6604 15.30186523 34647
STARLINK-32042          
1 60108U 24117T   25027.46377041  .00001851  00000+0  74654-4 0  9992
2 60108  53.1597 123.8451 0001313  93.3359 266.7792 15.30182245 34604
STARLINK-32040          
1 60109U 24117U   25027.47009358 -.00003760  00000+0 -11485-3 0  9992
2 60109  53.1594 123.8842 0001547 105.1641 254.9531 15.30203702 34647
STARLINK-32001          
1 60110U 24117V   25027.45425756 -.00006868  00000+0 -21984-3 0  9993
2 60110  53.1601 123.7850 0001437  88.1226 271.9939 15.30219386 34649
STARLINK-32015          
1 60111U 24117W   25027.51324828 -.00000617  00000+0 -87159-5 0  9993
2 60111  53.1596 123.4369 0001414 117.9732 242.1412 15.30188182 34558
STARLINK-32024          
1 60112U 24117X   25026.74213150  .00000320  00000+0  22941-4 0  9999
2 60112  53.1606 127.1601 0001215  96.4895 263.6244 15.30192811 34589
STARLINK-11201 [DTC]    
1 60113U 24118A   25027.12670261  .00000569  00000+0  95648-5 0  9994
2 60113  53.1581  65.7883 0001797  96.3697 263.7525 15.69717782 35020
STARLINK-11198 [DTC]    
1 60114U 24118B   25027.37646729 -.00004338  00000+0 -30924-4 0  9999
2 60114  53.1593  64.5020 0001859  98.5545 261.5684 15.69731453 35055
STARLINK-11112 [DTC]    
1 60115U 24118C   25027.11688756 -.00004380  00000+0 -31283-4 0  9994
2 60115  53.1585  65.7269 0001197  88.6923 271.4232 15.69730101 35238
STARLINK-11210 [DTC]    
1 60116U 24118D   25027.49400194 -.00000264  00000+0  26795-5 0  9993
2 60116  53.1586  63.8084 0001277  96.0361 264.0802 15.69702607 35075
STARLINK-11203 [DTC]    
1 60117U 24118E   25027.10707839  .00001413  00000+0  16523-4 0  9991
2 60117  53.1584  65.6638 0001690  62.6680 297.4509 15.69714733 35180
STARLINK-11177 [DTC]    
1 60118U 24118F   25027.35685036  .00000272  00000+0  71094-5 0  9990
2 60118  53.1568  64.3720 0001407  77.3693 282.7482 15.69710518 35223
STARLINK-11127 [DTC]    
1 60119U 24118G   25027.09727147 -.00000821  00000+0 -19134-5 0  9991
2 60119  53.1588  65.5967 0001370  72.3993 287.7175 15.69702158 35011
STARLINK-11164 [DTC]    
1 60120U 24118H   25027.09236521 -.00000524  00000+0  53605-6 0  9995
2 60120  53.1592  65.5611 0001436  94.8510 265.2672 15.69706787 35241
STARLINK-11119 [DTC]    
1 60121U 24118J   25027.39599690 -.00001616  00000+0 -84835-5 0  9990
2 60121  53.1578  63.8954 0001270  87.3303 272.7860 15.69703878 35228
STARLINK-11157 [DTC]    
1 60122U 24118K   25027.40089611 -.00003234  00000+0 -21833-4 0  9996
2 60122  53.1585  63.9280 0001118  98.7507 261.3637 15.69720761 34969
STARLINK-11162 [DTC]    
1 60123U 24118L   25027.13641297 -.00000546  00000+0  36280-6 0  9997
2 60123  53.1594  65.1189 0001885 105.8337 254.2889 15.69701056 34869
STARLINK-11161 [DTC]    
1 60124U 24118M   25027.13160753  .00001823  00000+0  19914-4 0  9992
2 60124  53.1585  65.8189 0001482  70.9783 289.1395 15.69695078 35177
STARLINK-11160 [DTC]    
1 60125U 24118N   25027.40579595  .00000144  00000+0  60474-5 0  9994
2 60125  53.1578  63.9560 0000972  86.0208 274.0921 15.69718250 35294
STARLINK-31846          
1 60126U 24118P   25027.47643393  .00003187  00000+0  11967-3 0  9991
2 60126  53.1616 113.5128 0001119 109.4706 250.6416 15.30203815 34615
STARLINK-31840          
1 60127U 24118Q   25027.48277192 -.00005098  00000+0 -16015-3 0  9997
2 60127  53.1603 113.5582 0001608 106.8860 253.2317 15.30188553 34543
STARLINK-31813          
1 60128U 24118R   25027.47960706  .00000787  00000+0  38717-4 0  9999
2 60128  53.1591 113.5361 0001059 104.0164 256.0955 15.30184584 34541
STARLINK-31845          
1 60129U 24118S   25026.56255945  .00000626  00000+0  33267-4 0  9998
2 60129  53.1596 115.6297 0001328  97.7049 262.4103 15.30185474 33394
STARLINK-31838          
1 60130U 24118T   25027.48910427 -.00001396  00000+0 -35023-4 0  9994
2 60130  53.1607 113.5923 0001319  95.9073 264.2078 15.30192961 34536
STARLINK-31785          
1 60131U 24118U   25026.55781546  .00001319  00000+0  56687-4 0  9992
2 60131  53.1588 117.7360 0001255 112.7228 247.3906 15.30185880 33369
STARLINK-31792          
1 60132U 24118V   25027.46008044 -.00000322  00000+0  12655-5 0  9991
2 60132  53.1592 111.2374 0001205  91.8227 268.2912 15.30185051 34573
STARLINK-32043          
1 60135U 24120A   25027.08219117 -.00000736  00000+0 -12725-4 0  9997
2 60135  53.1614  48.5163 0001277  93.5183 266.5964 15.30190124 33987
STARLINK-32112          
1 60136U 24120B   25026.33006851  .00000556  00000+0  30902-4 0  9999
2 60136  53.1619  52.3545 0001365  97.7622 262.3533 15.30190869 34086
STARLINK-32050          
1 60137U 24120C   25027.44675299  .00002745  00000+0  10481-3 0  9992
2 60137  53.1602  47.2357 0001460  85.6760 274.4408 15.30183502 33875
STARLINK-32025          
1 60138U 24120D   25027.06530156 -.00000451  00000+0 -30824-5 0  9992
2 60138  53.1614  48.4101 0001322  88.4931 271.6221 15.30202557 33938
STARLINK-31867          
1 60139U 24120E   25027.36983135  .00000955  00000+0  44384-4 0  9997
2 60139  53.1611  47.4680 0001429  92.8393 267.2771 15.30191808 34024
STARLINK-31694          
1 60140U 24120F   25027.37299447  .00000849  00000+0  40810-4 0  9998
2 60140  53.1608  47.4846 0001655  96.4576 263.6613 15.30194588 34247
STARLINK-32036          
1 60141U 24120G   25027.04536972 -.00000612  00000+0 -85495-5 0  9999
2 60141  53.1604  48.9975 0001309  90.2360 269.8790 15.30188253 34192
STARLINK-32031          
1 60142U 24120H   25027.10436242  .00000063  00000+0  14277-4 0  9993
2 60142  53.1605  48.6539 0001282  91.9488 268.1659 15.30176158 34205
STARLINK-32027          
1 60143U 24120J   25027.06107887 -.00003190  00000+0 -95584-4 0  9995
2 60143  53.1613  48.3401 0001878 119.7939 240.3249 15.30203654 34200
STARLINK-32033          
1 60144U 24120K   25027.42776909  .00000381  00000+0  24997-4 0  9990
2 60144  53.1606  47.1176 0001406  95.2680 264.8481 15.30190106 34034
STARLINK-32029          
1 60145U 24120L   25026.37639373  .00000902  00000+0  42609-4 0  9996
2 60145  53.1613  51.9317 0001462  84.9289 275.1878 15.30190030 34014
STARLINK-32127          
1 60146U 24120M   25027.32023580 -.00000736  00000+0 -12737-4 0  9996
2 60146  53.1613  47.1582 0001199  82.4682 277.6455 15.30188709 34022
STARLINK-32019          
1 60147U 24120N   25027.46036289  .00000527  00000+0  29918-4 0  9997
2 60147  53.1611  46.6047 0001511  86.0785 274.0388 15.30196473 34105
STARLINK-32021          
1 60148U 24120P   25027.32004720  .00057841  00000+0  14525-2 0  9995
2 60148  53.1579  45.7280 0006750  72.9046 287.2698 15.39444466 34266
STARLINK-32022          
1 60149U 24120Q   25027.28129850 -.00000450  00000+0 -30708-5 0  9993
2 60149  53.1609  47.6229 0001044  79.8278 280.2840 15.30195663 34231
STARLINK-32014          
1 60150U 24120R   25027.33711624 -.00000950  00000+0 -19953-4 0  9990
2 60150  53.1606  47.2589 0001299  89.9862 270.1288 15.30197934 34088
STARLINK-32004          
1 60151U 24120S   25027.40559389  .00000667  00000+0  34662-4 0  9994
2 60151  53.1614  46.9760 0001328  87.6181 272.4972 15.30197093 34257
STARLINK-32147          
1 60152U 24120T   25027.04959324  .00000484  00000+0  28457-4 0  9990
2 60152  53.1614  49.0199 0001317  94.4614 265.6537 15.30192305 34031
STARLINK-32131          
1 60153U 24120U   25027.35927850 -.00000869  00000+0 -17203-4 0  9990
2 60153  53.1599  47.4015 0001373  95.9050 264.2107 15.30192389 34248
